K05N39X 19.7   0.15 K145N 116.50107   38.78215  121.18472   13.92837  0.8744533  0.25383952   2.4703769  6 MPO 87702    72   1   13 days 0.45 M-v 3Eh MPCADO     2803          2005 NX39          20050722
K05N39Y 20.7   0.15 K145N 217.53526  343.28968  314.40871    2.94920  0.4863438  0.29035892   2.2586344  4 MPO 90217   121   1  113 days 0.44 M-v 38h MPCADO     2804          2005 NY39          20051030
K05N44W 20.4   0.15 K145N 140.42795    0.73535  114.46630    6.05982  0.4833567  1.43238074   0.7794060  3 MPO121820   167   2 2005-2007 0.46 M-v 3Eh MPCALB     0802          2005 NW44          20070712
K05N44X 17.3   0.15 K145N 267.08624  215.01552  309.00835   36.68561  0.9074029  0.29905547   2.2146319  2 MPO237341   113   3 2005-2012 0.44 M-v 3Eh MPCADO     1803          2005 NX44          20120811
K05N55X 22.1   0.15 K145N 190.09515  277.14712  106.27320   26.47902  0.5942426  0.51343447   1.5445882  9 MPO 87705    14   1    1 days 0.53 M-v 3Eh MPCW       2803          2005 NX55          20050712
K05N56B 22.9   0.15 K145N  99.93137  114.31738  112.25884    6.76428  0.4724697  0.46830996   1.6422797  7 MPO 87705    17   1   17 days 0.47 M-v 3Eh MPCALB     2803          2005 NB56          20050728
K05N56G 22.4   0.15 K145N 318.95747  150.91303  114.13545   16.98110  0.6567164  0.21036019   2.8000149  4 MPO 87705    59   1    8 days 0.56 M-v 3Eh MPCADO     2803          2005 NG56          20050719
K05N63D 26.2   0.15 K145N 237.07422  313.26906  289.38639    8.52380  0.3023734  0.62163647   1.3597061  7 MPO 87706    27   1    3 days 0.80 M-v 3Eh MPCADO     2803          2005 ND63          20050715
K05N63J 21.0   0.15 K145N 142.57886    1.71055  120.86969   26.55019  0.4222619  1.21601791   0.8693128  4 MPO159753    47   2 2005-2009 0.49 M-v 3Eh MPCADO     0802          2005 NJ63          20090707
K05O00W 20.9   0.15 K145N   2.95662   62.35372  271.67048    1.63749  0.6006613  0.22607462   2.6687108  3 MPO167625   175   1  151 days 0.59 M-v 3Eh MPCW       2804          2005 OW            20051110
K05O00X 20.4   0.15 K145N 223.71004  100.27569  323.78431    7.62084  0.6173977  0.64207091   1.3307017  8 MPO 87711    40   1   10 days 0.39 M-v 3Eh MPCADO     A803          2005 OX            20050804
K05O01U 20.1   0.15 K145N 185.41358  204.81888  309.74318   12.52362  0.3198925  1.02255748   0.9757627  3 MPO201091   151   4 2005-2008 0.43 M-v 3Eh MPCADO     0802          2005 OU1           20081025
K05O01V 21.7   0.15 K145N 166.14372  235.57248  128.08283   13.21510  0.3083170  0.50789888   1.5557908  1 MPO129747    41   2 2005-2007 0.42 M-v 3Eh MPCK       0804          2005 OV1           20071203
K05O01X 22.4   0.15 K145N 270.49391  226.30172   95.00835    5.86226  0.4985438  0.30935124   2.1652173  4 MPO 90218    37   1   87 days 0.49 M-v 3Eh MPCADO     2804          2005 OX1           20051022
K05O02R 23.5   0.15 K145N  29.62400  335.83477  276.72688    3.71420  0.5516548  0.34075541   2.0300538  8 MPO 87712    33   1    4 days 0.51 M-v 3Eh MPCS       2803          2005 OR2           20050802
K05O02T 21.9   0.15 K145N  11.99825  325.30073  308.29031   27.33532  0.4801372  0.33628995   2.0479851  7 MPO 87712    50   1   10 days 0.51 M-v 3Eh MPCADO     2804          2005 OT2           20050808
K05O02U 19.1   0.15 K145N  74.84830  310.16125  127.37388   47.77781  0.3735671  0.71827657   1.2348331  2 MPO160829    51   2 2005-2009 0.46 M-v 3Eh MPCALB     0803          2005 OU2           20090801
K05O03D 21.2   0.15 K145N 136.50243   38.27597  323.82504   16.21135  0.6033691  0.26970026   2.3725487  4 MPO 90218    38   1   92 days 0.52 M-v 3Eh MPCALB     A803          2005 OD3           20051028
K05O03E 20.3   0.15 K145N 146.35151   58.33784  321.09839   25.38050  0.4283134  0.50263257   1.5666391  0 MPO264941   254   4 2005-2012 0.42 M-v 3Eh MPCW       8C03          2005 OE3           20120227
K05O03F 22.0   0.15 K145N 150.56748   94.71560  174.22404    3.28123  0.5872181  0.26747378   2.3856967  6 MPO 87712    75   1   43 days 0.49 M-v 3Eh MPCW       2803          2005 OF3           20050911
K05O03G 19.7   0.15 K145N 257.86552  206.05244  141.99431    5.74965  0.4869156  0.30806104   2.1712585  0 MPO139758   277   2 2005-2008 0.37 M-v 38h MPCADO     0804          2005 OG3           20080601
K05O03H 26.0   0.15 K145N 142.12805  185.41676  128.65497    4.79110  0.1681859  0.71674730   1.2365889  5 MPO 87712    83   1    6 days 0.49 M-v 3Eh MPCK       2804          2005 OH3           20050805
K05O03J 18.1   0.15 K145N 320.16182  155.10050  238.96479    4.44186  0.5370995  0.22065404   2.7122401  1 MPO190423    67   3 2004-2011 0.43 M-v 38h MPCALB     1804          2005 OJ3           20110114
K05O03K 21.5   0.15 K145N 285.83039  189.34758  134.77162    7.72440  0.5024325  0.31424770   2.1426668  5 MPO 87712   139   1   74 days 0.46 M-v 3Eh MPCADO     2804          2005 OK3           20051013
K05P00P 21.4   0.15 K145N 260.40092  358.28541  304.54797   10.15886  0.4759651  0.30414072   2.1898767  4 MPO 87716    56   1   70 days 0.40 M-v 38h MPCALB     2804          2005 PP            20051012
K05P02H 20.4   0.15 K145N   9.84910  343.50099   96.46782    5.75757  0.6043351  0.58044952   1.4232889  4 MPO198074    32   2 2005-2011 0.37 M-v 3Eh MPCW       0803          2005 PH2           20110503
K05P02J 19.5   0.15 K145N 193.45907  128.79721  326.52606   17.41477  0.6594639  0.75163822   1.1980184  2 MPO159753   159   3 2005-2009 0.42 M-v 3Eh MPCALB     8803          2005 PJ2           20090729
K05P05A 21.7   0.15 K145N 304.91657  149.02441  133.08021   15.33232  0.2269298  0.64864904   1.3216898  3 E2014-F20    59   1  106 days 0.37 M-v 3Eh MPCW       A804          2005 PA5           20050921
K05P16X 21.7   0.15 K145N 260.02307  199.65454  122.72360   11.11166  0.4551570  0.30632095   2.1794734  5 MPO 87718    38   1   41 days 0.72 M-v 38h MPCALB     2804          2005 PX16          20050920
K05P17A 24.0   0.15 K145N 169.85739  232.08133  125.75452    2.55480  0.5739835  0.28042368   2.3116722  6 MPO 87718    29   1    3 days 0.41 M-v 3Eh MPCK       2803          2005 PA17          20050815
K05Q00C 18.9   0.15 K145N 202.22868   12.20028   79.91660   13.79212  0.7725842  0.40740149   1.8021363  2 MPO264941    90   3 2005-2013 0.42 M-v 3Eh MPCADO     0803          2005 QC            20130512
K05Q00L 18.7   0.15 K145N  76.54825  290.69361  105.06414   10.71429  0.5036209  0.25794852   2.4440722  1 MPO181681    80   2 2005-2010 0.47 M-v 38h MPCW       0804          2005 QL            20100411
K05Q05A 21.2   0.15 K145N 104.59383  264.49548   93.37510    6.80221  0.2110806  0.60148091   1.3899147  1 MPO190425    57   2 2005-2011 0.42 M-v 3Eh MPCALB     0804          2005 QA5           20110103
K05Q05B 23.7   0.15 K145N 187.87963   93.60242  149.98945   13.66221  0.2517372  0.82907620   1.1222073  7 MPO 87721    40   1   14 days 0.54 M-v 3Eh MPCALB     2803          2005 QB5           20050909
K05Q10S 18.8   0.15 K145N 103.75425  229.95057  150.79769   15.80458  0.4800900  0.26200283   2.4187931  1 MPO167626    71   2 2005-2009 0.44 M-v 38h MPCW       0804          2005 QS10          20090917
K05Q11N 19.9   0.15 K145N 255.20463  134.96603  223.87136    5.62074  0.4037581  0.30765742   2.1731571  4 MPO167626   119   1  148 days 0.42 M-v 38h MPCW       2804          2005 QN11          20051128
K05Q11O 19.0   0.15 K145N  81.49439  231.36406  163.09148   45.19428  0.5094493  0.25714881   2.4491367  2 MPO286595   174   2 2005-2014 0.40 M-v 38h MPCW       0804          2005 QO11          20140225
K05Q11P 26.4   0.15 K145N 281.48322  119.83319  334.85684    3.95291  0.1757285  1.02264483   0.9757072  6 MPO 87722    53   1    9 days 0.63 M-v 3Eh MPCADO     2802          2005 QP11          20050906
K05Q11Q 22.4   0.15 K145N 249.30512   41.34504  337.50017    5.15778  0.4525420  0.30834978   2.1699028  4 MPO112898    42   1   93 days 0.42 M-v 38h MPCW       2804          2005 QQ11          20051111
K05Q30G 22.2   0.15 K145N 187.11471  351.16910  341.09128    7.03852  0.2126042  0.50903145   1.5534823  4 MPO221049    53   1   54 days 0.40 M-v 38h MPCALB     2804          2005 QG30          20051022
K05Q30Q 19.9   0.15 K145N 302.88947  173.57469   67.89929   11.22404  0.5449907  0.42373417   1.7555252  1 MPO241877    48   3 2005-2012 0.41 M-v 3Eh MPCADO     0803          2005 QQ30          20120830
K05Q76K 25.1   0.15 K145N 134.42462  266.23127  337.49010   22.89614  0.5181954  0.59574968   1.3988146  8 MPO 87737    14   1    2 days 0.60 M-v 3Eh MPCALB     2803          2005 QK76          20050831
K05Q76L 19.9   0.15 K145N 223.18603   54.11431  327.98672    5.90961  0.4419640  0.29987490   2.2105956  4 MPO 97796   105   1  128 days 0.64 M-v 38h MPCADO     2804          2005 QL76          20060105
K05Q87P 27.7   0.15 K145N 136.34168    7.11949  327.65739    0.26765  0.1753236  0.71991606   1.2329576  5 MPO 87739    85   1   29 days 0.66 M-v 3Eh MPCALB     2804          2005 QP87          20050929
K05Q87Q 22.7   0.15 K145N 357.52661   54.38634  155.05028   33.90624  0.3023708  0.98657296   0.9993476  7 MPO 87739    28   1   10 days 0.41 M-v 3Eh MPCW       2802          2005 QQ87          20050910
K05Q87R 20.4   0.15 K145N 288.39642  345.95753  354.10202    8.61524  0.4265422  0.31577659   2.1357451  4 MPO 90234    55   1   53 days 0.51 M-v 38h MPCW       2804          2005 QR87          20051023
K05Q88F 20.7   0.15 K145N 203.20155  176.38363  180.26684    7.01788  0.4599192  0.29118369   2.2543673  5 MPO 97797   109   1   73 days 0.58 M-v 38h MPCW       2804          2005 QF88          20051112
K05Q88G 20.4   0.15 K145N 337.19238  273.36317  344.66781   11.31793  0.4934674  0.43388235   1.7280437  2 MPO282648    71   2 2005-2014 0.39 M-v 3Eh MPCW       0803          2005 QG88          20140129
K05QF1X 20.5   0.15 K145N 165.26517   36.39000  359.93377    7.97336  0.4729958  0.28341449   2.2953805  1 MPO252017   118   2 2005-2012 0.50 M-v 38h MPCALB     0804          2005 QX151         20121231
